ONEWEB-0607             
1 54671U 22166AF  25191.73486969  .00000020  00000+0  16991-4 0  9991
2 54671  87.9273 312.0803 0001877 104.7025 255.4317 13.21824702126433
ONEWEB-0608             
1 54672U 22166AG  25191.74118636  .00000035  00000+0  52136-4 0  9993
2 54672  87.9263 312.0668 0001651 115.9812 244.1492 13.21826190126443
ONEWEB-0610             
1 54673U 22166AH  25191.72225120 -.00000048  00000+0 -14868-3 0  9994
2 54673  87.9277 312.1024 0001585 110.6230 249.5074 13.21825179126348
ONEWEB-0611             
1 54674U 22166AJ  25191.71595298  .00008614  00000+0  20819-1 0  9996
2 54674  87.9277 312.1006 0001801  69.9507 290.1820 13.21782967126330
ONEWEB-0612             
1 54675U 22166AK  25191.72854931 -.00000021  00000+0 -82875-4 0  9999
2 54675  87.9275 312.0754 0001796 105.3020 254.8313 13.21824301126328
ONEWEB-0615             
1 54676U 22166AL  25191.70964587 -.00000026  00000+0 -93578-4 0  9994
2 54676  87.9279 312.1057 0001976  99.9376 260.1981 13.21826114126338
ONEWEB-0655             
1 54677U 22166AM  25191.75852933  .00000014  00000+0  21216-5 0  9997
2 54677  87.9277 312.1001 0002150 108.1209 252.0159 13.21827223126338
ONEWEB-0659             
1 54678U 22166AN  25191.70016516  .00000015  00000+0  40424-5 0  9995
2 54678  87.9278 312.1131 0001925  94.9255 265.2099 13.21824820126414
